CZ-2C R/B               
1 52794U 22058K   25304.11169690  .00033630  00000+0  66089-3 0  9997
2 52794  50.1912 260.4605 0050537  20.7170 339.5830 15.45537586190030
GSLV R/B                
1 54149U 22138AN  25304.24566259  .00004186  00000+0  37184-3 0  9996
2 54149  87.3855 209.6928 0018896 261.7749  98.1338 14.95776868164571
XRISM                   
1 57800U 23137A   25303.66968475  .00008491  00000+0  50850-3 0  9992
2 57800  31.0030  43.4841 0008235 170.6420 189.4372 15.09661349118111
ACS3                    
1 59588U 24077B   25304.17561626  .00048285  00000+0  43825-1 0  9992
2 59588  97.3366 269.2005 0033866  31.3589 328.9581 13.82917671 76251
