CCSDS_OMM_VERS = 2.0
CREATION_DATE  = 
ORIGINATOR     = 

OBJECT_NAME    = CZ-2C R/B
OBJECT_ID      = 2022-058K
CENTER_NAME    = EARTH
REF_FRAME      = TEME
TIME_SYSTEM    = UTC
MEAN_ELEMENT_THEORY = SGP/SGP4

EPOCH          = 2025-10-31T02:40:50.612160
MEAN_MOTION    = 15.45537586
ECCENTRICITY   = .00505374
INCLINATION    = 50.1912
RA_OF_ASC_NODE = 260.4605
ARG_OF_PERICENTER = 20.7170
MEAN_ANOMALY   = 339.5830

EPHEMERIS_TYPE = 0
CLASSIFICATION_TYPE = U
NORAD_CAT_ID   = 52794
ELEMENT_SET_NO = 999
REV_AT_EPOCH   = 19003
BSTAR          = .66089307E-3
MEAN_MOTION_DOT = .3363E-3
MEAN_MOTION_DDOT = 0

CCSDS_OMM_VERS = 2.0
CREATION_DATE  = 
ORIGINATOR     = 

OBJECT_NAME    = GSLV R/B
OBJECT_ID      = 2022-138AN
CENTER_NAME    = EARTH
REF_FRAME      = TEME
TIME_SYSTEM    = UTC
MEAN_ELEMENT_THEORY = SGP/SGP4

EPOCH          = 2025-10-31T05:53:45.247776
MEAN_MOTION    = 14.95776868
ECCENTRICITY   = .00188965
INCLINATION    = 87.3855
RA_OF_ASC_NODE = 209.6928
ARG_OF_PERICENTER = 261.7749
MEAN_ANOMALY   = 98.1338

EPHEMERIS_TYPE = 0
CLASSIFICATION_TYPE = U
NORAD_CAT_ID   = 54149
ELEMENT_SET_NO = 999
REV_AT_EPOCH   = 16457
BSTAR          = .37184291E-3
MEAN_MOTION_DOT = .4186E-4
MEAN_MOTION_DDOT = 0

CCSDS_OMM_VERS = 2.0
CREATION_DATE  = 
ORIGINATOR     = 

OBJECT_NAME    = XRISM
OBJECT_ID      = 2023-137A
CENTER_NAME    = EARTH
REF_FRAME      = TEME
TIME_SYSTEM    = UTC
MEAN_ELEMENT_THEORY = SGP/SGP4

EPOCH          = 2025-10-30T16:04:20.762400
MEAN_MOTION    = 15.09661349
ECCENTRICITY   = .00082359
INCLINATION    = 31.0030
RA_OF_ASC_NODE = 43.4841
ARG_OF_PERICENTER = 170.6420
MEAN_ANOMALY   = 189.4372

EPHEMERIS_TYPE = 0
CLASSIFICATION_TYPE = U
NORAD_CAT_ID   = 57800
ELEMENT_SET_NO = 999
REV_AT_EPOCH   = 11811
BSTAR          = .50850319E-3
MEAN_MOTION_DOT = .8491E-4
MEAN_MOTION_DDOT = 0

CCSDS_OMM_VERS = 2.0
CREATION_DATE  = 
ORIGINATOR     = 

OBJECT_NAME    = ACS3
OBJECT_ID      = 2024-077B
CENTER_NAME    = EARTH
REF_FRAME      = TEME
TIME_SYSTEM    = UTC
MEAN_ELEMENT_THEORY = SGP/SGP4

EPOCH          = 2025-10-31T04:12:53.244864
MEAN_MOTION    = 13.82917671
ECCENTRICITY   = .00338667
INCLINATION    = 97.3366
RA_OF_ASC_NODE = 269.2005
ARG_OF_PERICENTER = 31.3589
MEAN_ANOMALY   = 328.9581

EPHEMERIS_TYPE = 0
CLASSIFICATION_TYPE = U
NORAD_CAT_ID   = 59588
ELEMENT_SET_NO = 999
REV_AT_EPOCH   = 7625
BSTAR          = .43824619E-1
MEAN_MOTION_DOT = .48285E-3
MEAN_MOTION_DDOT = 0

